ONEWEB-0555             
1 56057U 23043M   25031.55132659  .00000077  00000+0  16906-3 0  9990
2 56057  87.9126 328.7343 0001947  58.2975 301.8346 13.16595502 92952
ONEWEB-0557             
1 56058U 23043N   25031.56557961  .00000068  00000+0  14510-3 0  9998
2 56058  87.9123 328.7557 0001609  46.9193 313.2073 13.16596032 92951
ONEWEB-0558             
1 56059U 23043P   25031.57544055  .00000096  00000+0  20085-3 0  9995
2 56059  87.9339 343.9417 0002183  92.8228 267.3156 13.21828219 91975
ONEWEB-0559             
1 56060U 23043Q   25031.56441092  .00000164  00000+0  36617-3 0  9997
2 56060  87.9336 343.9381 0001671  97.1652 262.9672 13.21828581 91981
ONEWEB-0566             
1 56061U 23043R   25031.55810863  .00000127  00000+0  27582-3 0  9993
2 56061  87.9336 343.9389 0002096  96.3025 263.8348 13.21827987 91964
ONEWEB-0568             
1 56062U 23043S   25031.35500998  .00000074  00000+0  15883-3 0  9999
2 56062  87.9125 328.7627 0001876  70.0986 290.0347 13.16596107 92948
ONEWEB-0574             
1 56063U 23043T   25031.40041004  .00000038  00000+0  59536-4 0  9998
2 56063  87.9335 343.9608 0001972  78.3701 281.7655 13.21825130 91982
ONEWEB-0575             
1 56064U 23043U   25031.57666472  .00000065  00000+0  13588-3 0  9995
2 56064  87.9128 328.7305 0001461  62.6534 297.4745 13.16595851 92962
ONEWEB-0576             
1 56065U 23043V   25031.55765310  .00000082  00000+0  18088-3 0  9994
2 56065  87.9125 328.7265 0001753  70.5038 289.6282 13.16597305 92950
ONEWEB-0577             
1 56066U 23043W   25031.56399189  .00000110  00000+0  25343-3 0  9997
2 56066  87.9122 328.7255 0001262  57.0336 303.0916 13.16595698 92984
ONEWEB-0578             
1 56067U 23043X   25031.61487859 -.00000005  00000+0 -43417-4 0  9994
2 56067  87.9337 343.9243 0001857  76.3204 283.8136 13.21825482 92888
ONEWEB-0579             
1 56068U 23043Y   25031.60540587  .00000056  00000+0  10516-3 0  9999
2 56068  87.9335 343.9164 0001739  92.3978 267.7355 13.21823812 91983
ONEWEB-0581             
1 56069U 23043Z   25031.57033065  .00000107  00000+0  24508-3 0  9997
2 56069  87.9125 328.7546 0001231  77.3431 282.7838 13.16595833 92954
ONEWEB-0609             
1 56070U 23043AA  25031.43356563  .00000144  00000+0  34843-3 0  9999
2 56070  87.9101 359.1269 0001930  84.7213 275.4137 13.15549183 90467
ONEWEB-0613             
1 56071U 23043AB  25031.42880740  .00000247  00000+0  62198-3 0  9996
2 56071  87.9105 359.1330 0001807  92.5713 267.5624 13.15551928 90469
ONEWEB-0630             
1 56072U 23043AC  25031.42404894  .00000184  00000+0  45527-3 0  9996
2 56072  87.9100 359.1167 0001916  93.0955 267.0395 13.15548370 90454
ONEWEB-0632             
1 56073U 23043AD  25031.34323757  .00000141  00000+0  34115-3 0  9990
2 56073  87.9100 359.1521 0001522  84.3505 275.7799 13.15550568 90441
ONEWEB-0633             
1 56074U 23043AE  25031.41296317  .00000074  00000+0  16151-3 0  9995
2 56074  87.9095 359.1113 0002156  94.4940 265.6437 13.15551244 90439
ONEWEB-0634             
1 56075U 23043AF  25031.39871386 -.00000065  00000+0 -20782-3 0  9995
2 56075  87.9106 359.1403 0002226  82.1678 277.9705 13.15547713 90424
ONEWEB-0635             
1 56076U 23043AG  25031.47000316 -.00000104  00000+0 -30902-3 0  9991
2 56076  87.9077 359.1491 0001449  82.3914 277.7381 13.15549935 90460
ONEWEB-0636             
1 56077U 23043AH  25031.38602834 -.00000114  00000+0 -33674-3 0  9995
2 56077  87.9087 359.1632 0001500  82.0389 278.0911 13.15548536 90436
ONEWEB-0637             
1 56078U 23043AJ  25031.60787729  .00000352  00000+0  90149-3 0  9990
2 56078  87.9105 359.0980 0001669  73.0608 287.0705 13.15549165 91399
ONEWEB-0647             
1 56079U 23043AK  25031.60311437  .00000104  00000+0  24226-3 0  9998
2 56079  87.9102 359.1119 0001669  87.9343 272.1978 13.15547460 90473
ONEWEB-0651             
1 56080U 23043AL  25031.59835502  .00000168  00000+0  41286-3 0  9997
2 56080  87.9106 359.0967 0001537  74.7751 285.3549 13.15548921 91676
ONEWEB-0718             
1 56081U 23043AM  25031.59360428  .00000165  00000+0  40405-3 0  9997
2 56081  87.9105 359.0822 0002280  77.9774 282.1612 13.15545769 90483
ONEWEB-0561             
1 56710U 23068A   25031.46053726 -.00000275  00000+0 -70948-3 0  9998
2 56710  87.9257  14.3037 0001282  90.1977 269.9303 13.20770387 83273
ONEWEB-0668             
1 56711U 23068B   25031.34470933  .00000150  00000+0  36001-3 0  9991
2 56711  87.9115 328.7633 0002327  69.1321 291.0059 13.16597234 85742
ONEWEB-0676             
1 56712U 23068C   25031.32492093  .00000093  00000+0  20982-3 0  9998
2 56712  87.9125 328.7894 0001255  80.7748 279.3525 13.16595650 85662
ONEWEB-0677             
1 56713U 23068D   25031.44950967  .00000027  00000+0  33882-4 0  9992
2 56713  87.9258  14.2765 0001666  77.9332 282.1988 13.20770642 83571
ONEWEB-0678             
1 56714U 23068E   25031.40979846  .00000087  00000+0  19618-3 0  9992
2 56714  87.9105 359.0871 0001837  94.3391 265.7949 13.15548946 83319
ONEWEB-0679             
1 56715U 23068F   25031.52203913  .00000100  00000+0  22897-3 0  9990
2 56715  87.9123 328.7467 0001729  58.5108 301.6192 13.16596226 85713
ONEWEB-0680             
1 56716U 23068G   25031.38147861 -.00000022  00000+0 -85664-4 0  9991
2 56716  87.9316 343.9931 0002332  66.9433 293.1947 13.21824845 84807
ONEWEB-0681             
1 56717U 23068H   25031.39174111  .00000012  00000+0 -31615-5 0  9997
2 56717  87.9336 343.9897 0000956  56.1365 303.9860 13.21826618 84798
ONEWEB-0682             
1 56718U 23068J   25031.43593926  .00000200  00000+0  49714-3 0  9997
2 56718  87.9103 359.1169 0002083  69.6605 290.4749 13.15546597 83480
ONEWEB-0683             
1 56719U 23068K   25031.45733169 -.00000038  00000+0 -13518-3 0  9999
2 56719  87.9102 359.0840 0002013  74.8762 285.2591 13.15549626 83450
ONEWEB-0684             
1 56720U 23068L   25031.46525760 -.00000082  00000+0 -25189-3 0  9994
2 56720  87.9078 359.1348 0002813 112.2114 247.9315 13.15548291 83281
ONEWEB-0686             
1 56721U 23068M   25031.51175194  .00000203  00000+0  49738-3 0  9992
2 56721  87.9124 328.7854 0002088  78.3979 281.7387 13.16595818 85705
ONEWEB-0694             
1 56722U 23068N   25031.32650274  .00000084  00000+0  18674-3 0  9991
2 56722  87.9119 328.7414 0002032  68.4044 291.7303 13.16596063 85739
ONEWEB-0696             
1 56723U 23068P   25031.42249047  .00000178  00000+0  43834-3 0  9995
2 56723  87.9101 359.1429 0001805  93.4324 266.7013 13.15549916 83395
ONEWEB-0703             
1 56724U 23068Q   25031.43198390  .00000199  00000+0  49573-3 0  9990
2 56724  87.9097 359.1609 0001406 123.1252 237.0013 13.15549222 83287
ONEWEB-0721             
1 56725U 23068R   25031.58334491  .00000015  00000+0  00000+0 0  9996
2 56725  86.6718 245.4767 0007448 213.9859 172.5759 13.43675430  5386
ONEWEB-0015             
1 61594U 24188A   25031.58334491 -.00854731  00000+0 -24834+0 0  9995
2 61594  86.8065 126.6560 0004533 188.3513 110.1484 14.47221525  5591
ONEWEB-0687             
1 61595U 24188B   25031.61915832  .00005327  00000+0  64487-3 0  9993
2 61595  86.5786 126.1303 0003722 187.5719 172.5449 14.83494413 18299
ONEWEB-0688             
1 61596U 24188C   25031.28521165  .00005485  00000+0  66415-3 0  9997
2 61596  86.5798 126.2950 0003212 186.4728 173.6454 14.83492975 18248
ONEWEB-0689             
1 61597U 24188D   25031.58334491 -.00667416  00000+0 -21673+0 0  9998
2 61597  86.8471 126.8702 0001620 160.8673 192.7858 14.41548444  5598
ONEWEB-0690             
1 61598U 24188E   25031.66670139 -.00374414  00000+0 -98257-1 0  9997
2 61598  86.8656 126.8637 0005603 190.4532 118.8902 14.51614798 16362
ONEWEB-0691             
1 61599U 24188F   25031.58334491 -.00688067  00000+0 -21477+0 0  9997
2 61599  86.8464 126.9264 0004001 189.2676 346.2572 14.43574438  5694
ONEWEB-0692             
1 61600U 24188G   25031.66670139 -.00708848  00000+0 -22636+0 0  9999
2 61600  86.8542 126.8844 0001044 201.0340 236.8989 14.42537174 16460
ONEWEB-0693             
1 61601U 24188H   25031.28561420  .00005580  00000+0  67576-3 0  9997
2 61601  86.5713 126.1975 0001672 162.5204 197.6077 14.83491092 18246
ONEWEB-0695             
1 61602U 24188J   25031.58334491 -.00705183  00000+0 -22549+0 0  9992
2 61602  86.8472 126.9166 0001650 159.5838 216.4254 14.42456721  5683
ONEWEB-0697             
1 61603U 24188K   25031.66670139 -.00710912  00000+0 -23360+0 0  9992
2 61603  86.8435 126.8722 0000235 177.1360 152.6498 14.41132782 16516
ONEWEB-0698             
1 61604U 24188L   25031.58334491 -.00676767  00000+0 -21534+0 0  9992
2 61604  86.8484 126.9224 0003792 205.9690 239.0911 14.42585816  5380
ONEWEB-0699             
1 61605U 24188M   25031.58334491  .00017723  00000+0  42052-1 0  9992
2 61605  87.9423 136.2153 0001037  65.7709  81.5364 13.23007734  5001
ONEWEB-0700             
1 61606U 24188N   25031.58334491  .00021019  00000+0  49893-1 0  9996
2 61606  87.9425 136.2258 0002062  56.0961 312.4617 13.22963368  5260
ONEWEB-0701             
1 61607U 24188P   25031.58334491  .00071620  00000+0  16943+0 0  9998
2 61607  87.9438 136.2183 0001181  66.2790 331.9495 13.22844387  5344
ONEWEB-0702             
1 61608U 24188Q   25031.58334491 -.00760067  00000+0 -24013+0 0  9998
2 61608  86.8514 126.9417 0004214 191.7493 279.0540 14.43259231  5589
ONEWEB-0704             
1 61609U 24188R   25031.54830760  .00000065  00000+0  12374-3 0  9999
2 61609  87.8655 136.1975 0001219  75.5027 284.6242 13.23275447 17570
ONEWEB-0705             
1 61610U 24188S   25031.58334491  .00035331  00000+0  83466-1 0  9997
2 61610  87.9471 136.2244 0002124 114.2360 348.1886 13.23194514  5354
ONEWEB-0706             
1 61611U 24188T   25031.58334491  .00068473  00000+0  16185+0 0  9993
2 61611  87.9415 136.1962 0001837 239.7213 102.8659 13.22922589  5374
